EUTELSAT QUANTUM        
1 49056U 21069B   25342.43362980  .00000128  00000+0  00000+0 0  9992
2 49056   0.0323  53.6769 0003682 215.9300  11.6408  1.00271583 16014
EUTELSAT KONNECT VHTS   
1 53765U 22110A   25342.78135139  .00000019  00000+0  00000+0 0  9993
2 53765   0.0627 103.4573 0002636 134.6308 123.6890  1.00270517  4914
EUTELSAT HOTBIRD 13F    
1 54048U 22134A   25342.64076446  .00000089  00000+0  00000+0 0  9991
2 54048   0.0486 292.2851 0002045  61.4058 327.6443  1.00271424 11467
EUTELSAT HOTBIRD 13G    
1 54225U 22146A   25342.64076446  .00000089  00000+0  00000+0 0  9991
2 54225   0.0488 235.9302 0001883 310.6832 134.7005  1.00270657  5550
EUTELSAT 10B            
1 54259U 22157A   25342.78282472  .00000070  00000+0  00000+0 0  9993
2 54259   0.0629  99.9700 0000860  78.0476 191.5594  1.00268735 11114
EUTELSAT 36D            
1 59346U 24059A   25342.57403071  .00000158  00000+0  00000+0 0  9992
2 59346   0.0187 325.0021 0000358 331.7781  23.3194  1.00268699  6238
